ONEWEB-0379             
1 49305U 21090AC  25208.47161494  .00000277  00000+0  71252-3 0  9991
2 49305  87.9065 354.3162 0001919  97.7345 262.4002 13.14504560184904
ONEWEB-0380             
1 49306U 21090AD  25208.53761561  .00000109  00000+0  24080-3 0  9991
2 49306  87.9225   9.5113 0001686  97.6842 262.4482 13.19727218183600
ONEWEB-0381             
1 49307U 21090AE  25208.61621300  .00000142  00000+0  31715-3 0  9997
2 49307  87.9296 339.1031 0001829 107.3070 252.8263 13.20772164186987
ONEWEB-0382             
1 49308U 21090AF  25208.60360240  .00000042  00000+0  71285-4 0  9996
2 49308  87.9286 339.0986 0002005 108.2890 251.8462 13.20771620186977
ONEWEB-0383             
1 49309U 21090AG  25208.38915614  .00000127  00000+0  30814-3 0  9999
2 49309  87.9058 354.3119 0002033  97.8110 262.3250 13.14502225184923
ONEWEB-0384             
1 49310U 21090AH  25208.59924160  .00000059  00000+0  11411-3 0  9996
2 49310  87.9299 339.1181 0002200 111.9570 248.1797 13.20787060186981
ONEWEB-0385             
1 49311U 21090AJ  25208.44418446  .00000024  00000+0  26262-4 0  9999
2 49311  87.9275 339.1460 0001923 102.8063 257.3286 13.20771459186938
ONEWEB-0386             
1 49312U 21090AK  25208.61305933  .00000094  00000+0  19951-3 0  9998
2 49312  87.9285 339.0835 0002061 105.7262 254.4098 13.20772519186973
